STARLINK-34635          
1 64761U 25147G   26200.77428603  .00016074  00000+0  48577-3 0  9991
2 64761  53.1605 347.1664 0001717  85.8917 274.2282 15.34405479 59004
STARLINK-34638          
1 64762U 25147H   26200.67338038  .00009504  00000+0  29210-3 0  9996
2 64762  53.1605 347.2529 0000863  83.7898 276.3203 15.34395233 58991
STARLINK-34534          
1 64763U 25147J   26200.76376378  .00008770  00000+0  27036-3 0  9994
2 64763  53.1593 347.1008 0001119  83.2214 276.8916 15.34402488 59001
STARLINK-34261          
1 64764U 25147K   26200.79733817  .00005250  00000+0  16642-3 0  9994
2 64764  53.1617 346.5984 0000797 104.8600 255.2490 15.34396723 59052
STARLINK-34566          
1 64765U 25147L   26200.81417269  .00013510  00000+0  41012-3 0  9995
2 64765  53.1605 346.7049 0001094  85.6215 274.4912 15.34409701 59012
STARLINK-34645          
1 64766U 25147M   26200.80039691  .00006328  00000+0  22556-3 0  9995
2 64766  53.1625 349.4538 0001067  93.6238 266.4885 15.30202953 58972
STARLINK-34639          
1 64767U 25147N   26200.82048227  .00011534  00000+0  35186-3 0  9991
2 64767  53.1604 346.7404 0001356  90.4482 269.6676 15.34410325 58969
STARLINK-34609          
1 64768U 25147P   26200.76837700  .00009004  00000+0  27730-3 0  9992
2 64768  53.1608 338.6097 0001402  64.6886 295.4261 15.34399183 59129
STARLINK-34246          
1 64769U 25147Q   26200.80785829  .00012161  00000+0  37037-3 0  9991
2 64769  53.1600 346.6672 0000789  98.8210 261.2882 15.34407418 59016
STARLINK-34618          
1 64770U 25147R   26200.78892382  .00014252  00000+0  43212-3 0  9998
2 64770  53.1615 346.5496 0000905  86.7035 273.4071 15.34400794 58944
STARLINK-34541          
1 64771U 25147S   26200.80575655  .00009131  00000+0  28106-3 0  9998
2 64771  53.1626 346.6541 0001099  84.2264 275.8864 15.34400037 58947
STARLINK-34652          
1 64772U 25147T   26200.81206926  .00009870  00000+0  30283-3 0  9991
2 64772  53.1622 346.6910 0001190  81.4961 278.6176 15.34404676 59018
STARLINK-34612          
1 64773U 25147U   26200.79944372  .00010275  00000+0  31479-3 0  9992
2 64773  53.1596 346.6118 0000866  78.6342 281.4758 15.34402607 59019
STARLINK-34621          
1 64774U 25147V   26200.79406583  .00008889  00000+0  31181-3 0  9998
2 64774  53.1609 349.4140 0001104  85.3892 274.7235 15.30208171 58900
STARLINK-34657          
1 64775U 25147W   26200.82259019  .00010280  00000+0  31489-3 0  9992
2 64775  53.1594 346.7555 0001275  76.6830 283.4314 15.34407378 59010
STARLINK-34637          
1 64776U 25147X   26200.70494076  .00011385  00000+0  34751-3 0  9996
2 64776  53.1626 347.4418 0001111  76.8052 283.3075 15.34406674 58920
STARLINK-34547          
1 64777U 25147Y   26200.73009814  .00012345  00000+0  37583-3 0  9995
2 64777  53.1622 346.8911 0000927  79.9474 280.1633 15.34405699 58947
STARLINK-34537          
1 64778U 25147Z   26200.78299014  .00014557  00000+0  50230-3 0  9995
2 64778  53.1566 326.3094 0000592  44.1705 315.9343 15.30222526 59329
STARLINK-34585          
1 64779U 25147AA  26200.44229159  .00008546  00000+0  26379-3 0  9990
2 64779  53.1574 348.6456 0001717 102.7830 257.3365 15.34399666 58908
STARLINK-34491          
1 64780U 25147AB  26200.79313038  .00017182  00000+0  51830-3 0  9996
2 64780  53.1604 346.5700 0000979  86.8372 273.2742 15.34412190 59012
STARLINK-34582          
1 64781U 25147AC  26200.78681691  .00025067  00000+0  75021-3 0  9998
2 64781  53.1607 346.5278 0000503 107.9860 252.1198 15.34414167 58944
STARLINK-34482          
1 64782U 25147AD  26200.69652612  .00013741  00000+0  41703-3 0  9996
2 64782  53.1598 347.3893 0001245  78.8763 281.2379 15.34403086 59031
STARLINK-34629          
1 64790U 25150A   26200.30032426  .00010625  00000+0  89585-3 0  9990
2 64790  70.0006 162.5074 0003594 253.9971 106.0792 14.98373594 56237
STARLINK-34697          
1 64791U 25150B   26200.63816457  .00002717  00000+0  23537-3 0  9999
2 64791  70.0011 161.6746 0003265 259.7305 100.3486 14.98337012 56287
STARLINK-34632          
1 64792U 25150C   26200.86363402  .00002733  00000+0  23678-3 0  9996
2 64792  70.0014 161.1392 0002978 267.6867  92.3952 14.98321561 56318
STARLINK-34693          
1 64793U 25150D   26200.61746350 -.00000104  00000+0 -93055-6 0  9998
2 64793  70.0000 161.9982 0003732 262.4229  97.6506 14.98337146 56275
STARLINK-34666          
1 64794U 25150E   26200.88435389  .00002553  00000+0  22169-3 0  9998
2 64794  70.0009 161.3330 0003287 261.7316  98.3470 14.98326431 56318
STARLINK-34567          
1 64795U 25150F   26200.89266124  .00002535  00000+0  22017-3 0  9991
2 64795  70.0007 160.9591 0003764 259.0673 101.0062 14.98335191 56320
STARLINK-34646          
1 64796U 25150G   26200.60076959  .00002125  00000+0  18582-3 0  9993
2 64796  70.0005 161.9406 0003465 268.6300  91.4462 14.98337168 57161
STARLINK-34641          
1 64797U 25150H   26200.84677399  .00002715  00000+0  23525-3 0  9993
2 64797  70.0010 161.1987 0002825 268.3650  91.7185 14.98335527 57148
