OBJECT_NAME,OBJECT_ID,EPOCH,MEAN_MOTION,ECCENTRICITY,INCLINATION,RA_OF_ASC_NODE,ARG_OF_PERICENTER,MEAN_ANOMALY,EPHEMERIS_TYPE,CLASSIFICATION_TYPE,NORAD_CAT_ID,ELEMENT_SET_NO,REV_AT_EPOCH,BSTAR,MEAN_MOTION_DOT,MEAN_MOTION_DDOT
STARLINK-34635,2025-147G,2026-07-19T18:34:58.312992,15.34405479,.0001717,53.1605,347.1664,85.8917,274.2282,0,U,64761,999,5900,.48577E-3,.16074E-3,0
STARLINK-34638,2025-147H,2026-07-19T16:09:40.064832,15.34395233,.0000863,53.1605,347.2529,83.7898,276.3203,0,U,64762,999,5899,.2921E-3,.9504E-4,0
STARLINK-34534,2025-147J,2026-07-19T18:19:49.190592,15.34402488,.0001119,53.1593,347.1008,83.2214,276.8916,0,U,64763,999,5900,.27036E-3,.877E-4,0
STARLINK-34261,2025-147K,2026-07-19T19:08:10.017888,15.34396723,.0000797,53.1617,346.5984,104.8600,255.2490,0,U,64764,999,5905,.16642E-3,.525E-4,0
STARLINK-34566,2025-147L,2026-07-19T19:32:24.520416,15.34409701,.0001094,53.1605,346.7049,85.6215,274.4912,0,U,64765,999,5901,.41012E-3,.1351E-3,0
STARLINK-34645,2025-147M,2026-07-19T19:12:34.293024,15.30202953,.0001067,53.1625,349.4538,93.6238,266.4885,0,U,64766,999,5897,.22556E-3,.6328E-4,0
STARLINK-34639,2025-147N,2026-07-19T19:41:29.668128,15.34410325,.0001356,53.1604,346.7404,90.4482,269.6676,0,U,64767,999,5896,.35186E-3,.11534E-3,0
STARLINK-34609,2025-147P,2026-07-19T18:26:27.772800,15.34399183,.0001402,53.1608,338.6097,64.6886,295.4261,0,U,64768,999,5912,.2773E-3,.9004E-4,0
STARLINK-34246,2025-147Q,2026-07-19T19:23:18.956256,15.34407418,.0000789,53.1600,346.6672,98.8210,261.2882,0,U,64769,999,5901,.37037E-3,.12161E-3,0
STARLINK-34618,2025-147R,2026-07-19T18:56:03.018048,15.34400794,.0000905,53.1615,346.5496,86.7035,273.4071,0,U,64770,999,5894,.43212E-3,.14252E-3,0
STARLINK-34541,2025-147S,2026-07-19T19:20:17.365920,15.34400037,.0001099,53.1626,346.6541,84.2264,275.8864,0,U,64771,999,5894,.28106E-3,.9131E-4,0
STARLINK-34652,2025-147T,2026-07-19T19:29:22.784064,15.34404676,.000119,53.1622,346.6910,81.4961,278.6176,0,U,64772,999,5901,.30283E-3,.987E-4,0
STARLINK-34612,2025-147U,2026-07-19T19:11:11.937408,15.34402607,.0000866,53.1596,346.6118,78.6342,281.4758,0,U,64773,999,5901,.31479E-3,.10275E-3,0
STARLINK-34621,2025-147V,2026-07-19T19:03:27.287712,15.30208171,.0001104,53.1609,349.4140,85.3892,274.7235,0,U,64774,999,5890,.31181E-3,.8889E-4,0
STARLINK-34657,2025-147W,2026-07-19T19:44:31.792416,15.34407378,.0001275,53.1594,346.7555,76.6830,283.4314,0,U,64775,999,5901,.31489E-3,.1028E-3,0
STARLINK-34637,2025-147X,2026-07-19T16:55:06.881664,15.34406674,.0001111,53.1626,347.4418,76.8052,283.3075,0,U,64776,999,5892,.34751E-3,.11385E-3,0
STARLINK-34547,2025-147Y,2026-07-19T17:31:20.479296,15.34405699,.0000927,53.1622,346.8911,79.9474,280.1633,0,U,64777,999,5894,.37583E-3,.12345E-3,0
STARLINK-34537,2025-147Z,2026-07-19T18:47:30.348096,15.30222526,.0000592,53.1566,326.3094,44.1705,315.9343,0,U,64778,999,5932,.5023E-3,.14557E-3,0
STARLINK-34585,2025-147AA,2026-07-19T10:36:53.993376,15.34399666,.00017175,53.1574,348.6456,102.7830,257.3365,0,U,64779,999,5890,.26379006E-3,.8546E-4,0
STARLINK-34491,2025-147AB,2026-07-19T19:02:06.464832,15.34412190,.0000979,53.1604,346.5700,86.8372,273.2742,0,U,64780,999,5901,.5183E-3,.17182E-3,0
STARLINK-34582,2025-147AC,2026-07-19T18:53:00.981024,15.34414167,.0000503,53.1607,346.5278,107.9860,252.1198,0,U,64781,999,5894,.75021E-3,.25067E-3,0
STARLINK-34482,2025-147AD,2026-07-19T16:42:59.856768,15.34403086,.0001245,53.1598,347.3893,78.8763,281.2379,0,U,64782,999,5903,.41703E-3,.13741E-3,0
STARLINK-34629,2025-150A,2026-07-19T07:12:28.016064,14.98373594,.00035948,70.0006,162.5074,253.9971,106.0792,0,U,64790,999,5623,.89585334E-3,.10625E-3,0
STARLINK-34697,2025-150B,2026-07-19T15:18:57.418848,14.98337012,.0003265,70.0011,161.6746,259.7305,100.3486,0,U,64791,999,5628,.23537E-3,.2717E-4,0
STARLINK-34632,2025-150C,2026-07-19T20:43:37.979328,14.98321561,.0002978,70.0014,161.1392,267.6867,92.3952,0,U,64792,999,5631,.23678E-3,.2733E-4,0
STARLINK-34693,2025-150D,2026-07-19T14:49:08.846400,14.98337146,.0003732,70.0000,161.9982,262.4229,97.6506,0,U,64793,999,5627,-.93055E-6,-.104E-5,0
STARLINK-34666,2025-150E,2026-07-19T21:13:28.176096,14.98326431,.0003287,70.0009,161.3330,261.7316,98.3470,0,U,64794,999,5631,.22169E-3,.2553E-4,0
STARLINK-34567,2025-150F,2026-07-19T21:25:25.931136,14.98335191,.0003764,70.0007,160.9591,259.0673,101.0062,0,U,64795,999,5632,.22017E-3,.2535E-4,0
STARLINK-34646,2025-150G,2026-07-19T14:25:06.492576,14.98337168,.0003465,70.0005,161.9406,268.6300,91.4462,0,U,64796,999,5716,.18582E-3,.2125E-4,0
STARLINK-34641,2025-150H,2026-07-19T20:19:21.272736,14.98335527,.0002825,70.0010,161.1987,268.3650,91.7185,0,U,64797,999,5714,.23525E-3,.2715E-4,0
